NORAD_CAT_ID,OBJECT_NAME,OBJECT_TYPE,EPOCH,MEAN_MOTION,ECCENTRICITY,INCLINATION,RA_OF_ASC_NODE,ARG_OF_PERICENTER,MEAN_ANOMALY,BSTAR,MEAN_MOTION_DOT,MEAN_MOTION_DDOT,TLE_LINE0,TLE_LINE1,TLE_LINE2,SEMIMAJOR_AXIS,PERIOD,APOGEE,PERIGEE,DECAYED
51811.0,STARLINK-3569,PAYLOAD,2024-02-24 18:03:10,15.08840335,0.0001502,53.2166,78.7878,90.2526,269.8639,-3.3438e-06,-3.41e-06,0.0,0 STARLINK-3569,1 51811U 22017AV  24055.75220596 -.00000341  00000-0 -33438-5 0  9996,2 51811  53.2166  78.7878 0001502  90.2526 269.8639 15.08840335111652,6917.879,95.438,540.783,538.705,0.0
51811.0,STARLINK-3569,PAYLOAD,2024-02-25 08:21:38,15.08846536,0.0001563,53.217,76.1107,97.144,262.973,9.9424e-05,1.295e-05,0.0,0 STARLINK-3569,1 51811U 22017AV  24056.34836097  .00001295  00000-0  99424-4 0  9994,2 51811  53.2170  76.1107 0001563  97.1440 262.9730 15.08846536111848,6917.86,95.437,540.807,538.644,0.0
51811.0,STARLINK-3569,PAYLOAD,2024-02-25 17:53:57,15.08847601,0.0001543,53.2169,74.3265,92.2591,267.8577,1.3579e-05,-7.2e-07,0.0,0 STARLINK-3569,1 51811U 22017AV  24056.74580123 -.00000072  00000-0  13579-4 0  9994,2 51811  53.2169  74.3265 0001543  92.2591 267.8577 15.08847601111805,6917.857,95.437,540.79,538.655,0.0
51811.0,STARLINK-3569,PAYLOAD,2024-02-26 11:23:11,15.08848417,0.0001634,53.2158,71.0551,88.4365,271.6814,0.00022512,3.297e-05,0.0,0 STARLINK-3569,1 51811U 22017AV  24057.47444019  .00003297  00000-0  22512-3 0  9995,2 51811  53.2158  71.0551 0001634  88.4365 271.6814 15.08848417112019,6917.855,95.437,540.85,538.589,0.0
51811.0,STARLINK-3569,PAYLOAD,2024-02-27 00:06:17,15.08838471,0.0002195,53.2163,68.6764,95.5972,264.5271,7.5221e-06,-1.69e-06,0.0,0 STARLINK-3569,1 51811U 22017AV  24058.00436645 -.00000169  00000-0  75221-5 0  9994,2 51811  53.2163  68.6764 0002195  95.5972 264.5271 15.08838471112094,6917.885,95.438,541.269,538.232,0.0
51811.0,STARLINK-3569,PAYLOAD,2024-02-27 09:38:36,15.0883909,0.0001551,53.2169,66.8911,91.7664,268.3506,6.5506e-06,-1.84e-06,0.0,0 STARLINK-3569,1 51811U 22017AV  24058.40181029 -.00000184  00000-0  65506-5 0  9993,2 51811  53.2169  66.8911 0001551  91.7664 268.3506 15.08839090112052,6917.883,95.438,540.821,538.675,0.0
51811.0,STARLINK-3569,PAYLOAD,2024-02-28 07:54:01,15.08781929,0.0002286,53.2172,62.7271,108.0104,252.1137,0.0010178,0.00015922,0.0,0 STARLINK-3569,1 51811U 22017AV  24059.32918080  .00015922  00000-0  10178-2 0  9997,2 51811  53.2172  62.7271 0002286 108.0104 252.1137 15.08781929112291,6918.058,95.441,541.504,538.341,0.0
51811.0,STARLINK-3569,PAYLOAD,2024-02-28 17:26:18,15.08837953,0.0001627,53.2174,60.9437,93.5343,266.5835,0.00015652,2.204e-05,0.0,0 STARLINK-3569,1 51811U 22017AV  24059.72660784  .00002204  00000-0  15652-3 0  9998,2 51811  53.2174  60.9437 0001627  93.5343 266.5835 15.08837953112358,6917.887,95.438,540.877,538.626,0.0
51811.0,STARLINK-3569,PAYLOAD,2024-02-29 09:20:10,15.08843641,0.00017,53.2177,57.9701,96.4342,263.6843,0.00016856,2.396e-05,0.0,0 STARLINK-3569,1 51811U 22017AV  24060.38900678  .00002396  00000-0  16856-3 0  9990,2 51811  53.2177  57.9701 0001700  96.4342 263.6843 15.08843641112352,6917.869,95.437,540.91,538.558,0.0
51811.0,STARLINK-3569,PAYLOAD,2024-02-29 17:17:06,15.08840397,0.0001659,53.2171,56.4848,83.7787,276.3394,9.1386e-05,1.167e-05,0.0,0 STARLINK-3569,1 51811U 22017AV  24060.72021137  .00001167  00000-0  91386-4 0  9999,2 51811  53.2171  56.4848 0001659  83.7787 276.3394 15.08840397112400,6917.879,95.438,540.892,538.596,0.0
51811.0,STARLINK-3569,PAYLOAD,2024-03-01 04:24:48,15.08839746,0.0001648,53.2173,54.4022,90.5332,269.5849,-1.1551e-05,-4.72e-06,0.0,0 STARLINK-3569,1 51811U 22017AV  24061.18389446 -.00000472  00000-0 -11551-4 0  9996,2 51811  53.2173  54.4022 0001648  90.5332 269.5849 15.08839746112577,6917.881,95.438,540.886,538.606,0.0
51811.0,STARLINK-3569,PAYLOAD,2024-03-01 09:10:57,15.08843547,0.0001648,53.2174,53.5092,94.5525,265.5656,1.7141e-05,-1.5e-07,0.0,0 STARLINK-3569,1 51811U 22017AV  24061.38261102 -.00000015  00000-0  17141-4 0  9999,2 51811  53.2174  53.5092 0001648  94.5525 265.5656 15.08843547112502,6917.87,95.437,540.875,538.594,0.0
51811.0,STARLINK-3569,PAYLOAD,2024-03-02 05:50:57,15.0884647,0.0001743,53.2178,49.6413,101.9253,258.1934,0.00014308,1.99e-05,0.0,0 STARLINK-3569,1 51811U 22017AV  24062.24372513  .00001990  00000-0  14308-3 0  9997,2 51811  53.2178  49.6413 0001743 101.9253 258.1934 15.08846470112736,6917.861,95.437,540.931,538.52,0.0
51811.0,STARLINK-3569,PAYLOAD,2024-03-03 04:06:22,15.08839442,0.0001719,53.2179,45.4784,100.4168,259.7018,0.00010168,1.331e-05,0.0,0 STARLINK-3569,1 51811U 22017AV  24063.17109082  .00001331  00000-0  10168-3 0  9998,2 51811  53.2179  45.4784 0001719 100.4168 259.7018 15.08839442112870,6917.882,95.438,540.936,538.558,0.0
51811.0,STARLINK-3569,PAYLOAD,2024-03-03 05:41:45,15.08842658,0.0001726,53.2175,45.1844,98.1673,261.9515,0.00014119,1.96e-05,0.0,0 STARLINK-3569,1 51811U 22017AV  24063.23732847  .00001960  00000-0  14119-3 0  9994,2 51811  53.2175  45.1844 0001726  98.1673 261.9515 15.08842658112782,6917.872,95.437,540.931,538.543,0.0
51811.0,STARLINK-3569,PAYLOAD,2024-03-03 21:35:38,15.08809864,0.0001628,53.2185,42.215,111.4634,248.6532,0.00069947,0.00010852,0.0,0 STARLINK-3569,1 51811U 22017AV  24063.89974557  .00010852  00000-0  69947-3 0  9991,2 51811  53.2185  42.2150 0001628 111.4634 248.6532 15.08809864112882,6917.973,95.439,540.964,538.711,0.0
51811.0,STARLINK-3569,PAYLOAD,2024-03-04 05:32:32,15.08846406,0.0001725,53.2178,40.7257,112.3014,247.8162,-7.5463e-06,-4.08e-06,0.0,0 STARLINK-3569,1 51811U 22017AV  24064.23092819 -.00000408  00000-0 -75463-5 0  9992,2 51811  53.2178  40.7257 0001725 112.3014 247.8162 15.08846406113036,6917.861,95.437,540.919,538.532,0.0
51811.0,STARLINK-3569,PAYLOAD,2024-03-04 15:04:51,15.08836178,0.0001637,53.2186,38.9378,101.269,258.8486,1.5778e-05,-3.7e-07,0.0,0 STARLINK-3569,1 51811U 22017AV  24064.62837371 -.00000037  00000-0  15778-4 0  9994,2 51811  53.2186  38.9378 0001637 101.2690 258.8486 15.08836178113099,6917.892,95.438,540.89,538.625,0.0
51811.0,STARLINK-3569,PAYLOAD,2024-03-05 03:47:57,15.08826134,0.00015,53.218,36.5591,92.7514,267.365,-0.00010864,-2.016e-05,0.0,0 STARLINK-3569,1 51811U 22017AV  24065.15830809 -.00002016  00000-0 -10864-3 0  9992,2 51811  53.2180  36.5591 0001500  92.7514 267.3650 15.08826134113170,6917.923,95.438,540.825,538.75,0.0
51811.0,STARLINK-3569,PAYLOAD,2024-03-05 08:34:06,15.08831735,0.0001517,53.2183,35.6659,85.2247,274.8918,-4.7009e-05,-1.036e-05,0.0,0 STARLINK-3569,1 51811U 22017AV  24065.35702449 -.00001036  00000-0 -47009-4 0  9995,2 51811  53.2183  35.6659 0001517  85.2247 274.8918 15.08831735113102,6917.906,95.438,540.82,538.721,0.0
51811.0,STARLINK-3569,PAYLOAD,2024-03-05 14:55:39,15.08839522,0.0001591,53.2199,34.4774,91.7779,268.3395,-3.9347e-05,-9.14e-06,0.0,0 STARLINK-3569,1 51811U 22017AV  24065.62198050 -.00000914  00000-0 -39347-4 0  9992,2 51811  53.2199  34.4774 0001591  91.7779 268.3395 15.08839522113242,6917.882,95.438,540.847,538.646,0.0
51811.0,STARLINK-3569,PAYLOAD,2024-03-06 06:49:30,15.08843801,0.0001529,53.218,31.5032,86.1369,273.9798,0.00029817,4.461e-05,0.0,0 STARLINK-3569,1 51811U 22017AV  24066.28437980  .00004461  00000-0  29817-3 0  9992,2 51811  53.2180  31.5032 0001529  86.1369 273.9798 15.08843801113245,6917.869,95.437,540.792,538.676,0.0
51811.0,STARLINK-3569,PAYLOAD,2024-03-07 03:29:31,15.08841398,0.0001373,53.2171,27.6372,90.1443,269.9707,0.0002565,3.797e-05,0.0,0 STARLINK-3569,1 51811U 22017AV  24067.14550218  .00003797  00000-0  25650-3 0  9990,2 51811  53.2171  27.6372 0001373  90.1443 269.9707 15.08841398113472,6917.876,95.437,540.691,538.791,0.0
51811.0,STARLINK-3569,PAYLOAD,2024-03-07 05:04:54,15.08845683,0.0001435,53.2174,27.3408,85.2953,274.8203,0.00027514,4.094e-05,0.0,0 STARLINK-3569,1 51811U 22017AV  24067.21174079  .00004094  00000-0  27514-3 0  9997,2 51811  53.2174  27.3408 0001435  85.2953 274.8203 15.08845683113389,6917.863,95.437,540.721,538.735,0.0
51811.0,STARLINK-3569,PAYLOAD,2024-03-08 06:31:04,15.08848492,0.0001838,53.2193,22.5808,94.0197,266.1006,0.000179,2.562e-05,0.0,0 STARLINK-3569,1 51811U 22017AV  24068.27157868  .00002562  00000-0  17900-3 0  9997,2 51811  53.2193  22.5808 0001838  94.0197 266.1006 15.08848492113641,6917.854,95.437,540.991,538.448,0.0
51811.0,STARLINK-3569,PAYLOAD,2024-03-08 14:28:00,15.08837186,0.0001955,53.2191,21.0922,101.2287,258.8925,5.7661e-06,-1.96e-06,0.0,0 STARLINK-3569,1 51811U 22017AV  24068.60278261 -.00000196  00000-0  57661-5 0  9997,2 51811  53.2191  21.0922 0001955 101.2287 258.8925 15.08837186113591,6917.889,95.438,541.106,538.402,0.0
51811.0,STARLINK-3569,PAYLOAD,2024-03-09 06:21:51,15.08850392,0.0001514,53.2181,18.1214,93.5788,266.5378,0.00016442,2.33e-05,0.0,0 STARLINK-3569,1 51811U 22017AV  24069.26517744  .00002330  00000-0  16442-3 0  9993,2 51811  53.2181  18.1214 0001514  93.5788 266.5378 15.08850392113795,6917.849,95.437,540.761,538.666,0.0
51811.0,STARLINK-3569,PAYLOAD,2024-03-10 06:12:38,15.08854019,0.0001567,53.2182,13.6608,93.8318,266.2853,0.00025638,3.796e-05,0.0,0 STARLINK-3569,1 51811U 22017AV  24070.25877384  .00003796  00000-0  25638-3 0  9997,2 51811  53.2182  13.6608 0001567  93.8318 266.2853 15.08854019113844,6917.838,95.437,540.787,538.619,0.0
51811.0,STARLINK-3569,PAYLOAD,2024-03-10 20:31:06,15.08842018,0.0001478,53.218,10.9847,96.399,263.717,4.4237e-05,4.16e-06,0.0,0 STARLINK-3569,1 51811U 22017AV  24070.85493700  .00000416  00000-0  44237-4 0  9992,2 51811  53.2180  10.9847 0001478  96.3990 263.7170 15.08842018114034,6917.874,95.437,540.762,538.717,0.0
51811.0,STARLINK-3569,PAYLOAD,2024-03-11 12:24:57,15.08839264,0.0001566,53.218,8.01,82.7977,277.3193,-2.4563e-05,-6.79e-06,0.0,0 STARLINK-3569,1 51811U 22017AV  24071.51733640 -.00000679  00000-0 -24563-4 0  9999,2 51811  53.2180   8.0100 0001566  82.7977 277.3193 15.08839264114031,6917.883,95.438,540.831,538.664,0.0
